[{"OBJECT_NAME":"FENGYUN 3G","OBJECT_ID":"2023-055A","EPOCH":"2026-03-09T16:44:49.517376","MEAN_MOTION":15.54631514,"ECCENTRICITY":0.00107503,"INCLINATION":49.9921,"RA_OF_ASC_NODE":138.942,"ARG_OF_PERICENTER":12.9044,"MEAN_ANOMALY":347.2197,"EPHEMERIS_TYPE":0,"CLASSIFICATION_TYPE":"U","NORAD_CAT_ID":56232,"ELEMENT_SET_NO":999,"REV_AT_EPOCH":16454,"BSTAR":0.00049281766,"MEAN_MOTION_DOT":0.00033011,"MEAN_MOTION_DDOT":0},{"OBJECT_NAME":"STARLINK-36619","OBJECT_ID":"2026-020AE","EPOCH":"2026-03-09T22:00:01.999584","MEAN_MOTION":15.6863066,"ECCENTRICITY":0.00014755,"INCLINATION":42.9998,"RA_OF_ASC_NODE":140.5322,"ARG_OF_PERICENTER":280.7274,"MEAN_ANOMALY":123.0439,"EPHEMERIS_TYPE":0,"CLASSIFICATION_TYPE":"U","NORAD_CAT_ID":67645,"ELEMENT_SET_NO":999,"REV_AT_EPOCH":599,"BSTAR":-0.019020349,"MEAN_MOTION_DOT":-0.0196604,"MEAN_MOTION_DDOT":0}]
